{"fetched_at":"2026-07-21T07:06:30.167Z","source":"https://celestrak.org/NORAD/elements/gp.php?GROUP=planet&FORMAT=JSON","constellation":"superdove","records":[{"OBJECT_NAME":"FLOCK 4Q-16","OBJECT_ID":"2023-174R","EPOCH":"2026-07-20T19:17:51.531360","CLASSIFICATION_TYPE":"U","MEAN_MOTION":15.50530408,"ECCENTRICITY":0.00065589,"INCLINATION":97.3812,"RA_OF_ASC_NODE":290.7236,"ARG_OF_PERICENTER":60.7825,"MEAN_ANOMALY":299.4082,"EPHEMERIS_TYPE":0,"NORAD_CAT_ID":58271,"ELEMENT_SET_NO":999,"REV_AT_EPOCH":15078,"BSTAR":0.00026679302,"MEAN_MOTION_DOT":0.00015158,"MEAN_MOTION_DDOT":0},{"OBJECT_NAME":"FLOCK 4Q-11","OBJECT_ID":"2023-174T","EPOCH":"2026-07-20T04:40:15.558528","CLASSIFICATION_TYPE":"U","MEAN_MOTION":15.51032668,"ECCENTRICITY":0.00060087,"INCLINATION":97.3847,"RA_OF_ASC_NODE":290.7407,"ARG_OF_PERICENTER":56.4849,"MEAN_ANOMALY":303.6976,"EPHEMERIS_TYPE":0,"NORAD_CAT_ID":58273,"ELEMENT_SET_NO":999,"REV_AT_EPOCH":15070,"BSTAR":0.00029906992,"MEAN_MOTION_DOT":0.00017311,"MEAN_MOTION_DDOT":0},{"OBJECT_NAME":"FLOCK 4Q-28","OBJECT_ID":"2023-174AA","EPOCH":"2026-07-20T19:21:58.349376","CLASSIFICATION_TYPE":"U","MEAN_MOTION":15.56981346,"ECCENTRICITY":0.00043052,"INCLINATION":97.3871,"RA_OF_ASC_NODE":294.158,"ARG_OF_PERICENTER":45.872,"MEAN_ANOMALY":314.2889,"EPHEMERIS_TYPE":0,"NORAD_CAT_ID":58280,"ELEMENT_SET_NO":999,"REV_AT_EPOCH":15097,"BSTAR":0.00030554769,"MEAN_MOTION_DOT":0.00021964,"MEAN_MOTION_DDOT":0},{"OBJECT_NAME":"FLOCK 4Q-27","OBJECT_ID":"2023-174AC","EPOCH":"2026-07-20T17:50:58.131168","CLASSIFICATION_TYPE":"U","MEAN_MOTION":15.57191078,"ECCENTRICITY":0.00034451,"INCLINATION":97.3802,"RA_OF_ASC_NODE":293.4953,"ARG_OF_PERICENTER":51.9274,"MEAN_ANOMALY":308.2291,"EPHEMERIS_TYPE":0,"NORAD_CAT_ID":58282,"ELEMENT_SET_NO":999,"REV_AT_EPOCH":15097,"BSTAR":0.00031260445,"MEAN_MOTION_DOT":0.00022649,"MEAN_MOTION_DDOT":0},{"OBJECT_NAME":"FLOCK 4Q-7","OBJECT_ID":"2023-174BQ","EPOCH":"2026-07-20T05:54:56.009376","CLASSIFICATION_TYPE":"U","MEAN_MOTION":15.57581247,"ECCENTRICITY":0.00041344,"INCLINATION":97.39,"RA_OF_ASC_NODE":293.9103,"ARG_OF_PERICENTER":24.0637,"MEAN_ANOMALY":336.0811,"EPHEMERIS_TYPE":0,"NORAD_CAT_ID":58318,"ELEMENT_SET_NO":999,"REV_AT_EPOCH":15089,"BSTAR":0.00028494733,"MEAN_MOTION_DOT":0.00020936,"MEAN_MOTION_DDOT":0},{"OBJECT_NAME":"FLOCK 4Q-2","OBJECT_ID":"2023-174BS","EPOCH":"2026-07-20T21:20:32.826912","CLASSIFICATION_TYPE":"U","MEAN_MOTION":15.5100663,"ECCENTRICITY":0.00042075,"INCLINATION":97.3836,"RA_OF_ASC_NODE":291.1646,"ARG_OF_PERICENTER":32.633,"MEAN_ANOMALY":327.5181,"EPHEMERIS_TYPE":0,"NORAD_CAT_ID":58320,"ELEMENT_SET_NO":999,"REV_AT_EPOCH":15082,"BSTAR":0.00031066306,"MEAN_MOTION_DOT":0.00017964,"MEAN_MOTION_DDOT":0},{"OBJECT_NAME":"FLOCK 4Q-9","OBJECT_ID":"2023-174BU","EPOCH":"2026-07-20T18:36:03.635712","CLASSIFICATION_TYPE":"U","MEAN_MOTION":15.51541024,"ECCENTRICITY":0.00050463,"INCLINATION":97.3841,"RA_OF_ASC_NODE":291.1646,"ARG_OF_PERICENTER":31.5083,"MEAN_ANOMALY":328.647,"EPHEMERIS_TYPE":0,"NORAD_CAT_ID":58322,"ELEMENT_SET_NO":999,"REV_AT_EPOCH":15079,"BSTAR":0.00031256994,"MEAN_MOTION_DOT":0.00018426,"MEAN_MOTION_DDOT":0},{"OBJECT_NAME":"FLOCK 4Q-4","OBJECT_ID":"2023-174BZ","EPOCH":"2026-07-20T17:31:25.301280","CLASSIFICATION_TYPE":"U","MEAN_MOTION":15.50021251,"ECCENTRICITY":0.00053388,"INCLINATION":97.3819,"RA_OF_ASC_NODE":290.2187,"ARG_OF_PERICENTER":59.3613,"MEAN_ANOMALY":300.8164,"EPHEMERIS_TYPE":0,"NORAD_CAT_ID":58327,"ELEMENT_SET_NO":999,"REV_AT_EPOCH":15075,"BSTAR":0.00028012826,"MEAN_MOTION_DOT":0.00015632,"MEAN_MOTION_DDOT":0},{"OBJECT_NAME":"FLOCK 4Q-13","OBJECT_ID":"2023-174CA","EPOCH":"2026-07-20T21:32:43.351872","CLASSIFICATION_TYPE":"U","MEAN_MOTION":15.53053083,"ECCENTRICITY":0.00053834,"INCLINATION":97.3995,"RA_OF_ASC_NODE":293.7352,"ARG_OF_PERICENTER":37.9112,"MEAN_ANOMALY":322.2519,"EPHEMERIS_TYPE":0,"NORAD_CAT_ID":58328,"ELEMENT_SET_NO":999,"REV_AT_EPOCH":15090,"BSTAR":0.00030000055,"MEAN_MOTION_DOT":0.00018669,"MEAN_MOTION_DDOT":0},{"OBJECT_NAME":"FLOCK 4BE-18","OBJECT_ID":"2024-149N","EPOCH":"2026-07-20T16:29:25.828800","CLASSIFICATION_TYPE":"U","MEAN_MOTION":15.42827215,"ECCENTRICITY":0.00053963,"INCLINATION":97.3715,"RA_OF_ASC_NODE":285.7902,"ARG_OF_PERICENTER":130.4313,"MEAN_ANOMALY":229.7406,"EPHEMERIS_TYPE":0,"NORAD_CAT_ID":60480,"ELEMENT_SET_NO":999,"REV_AT_EPOCH":10747,"BSTAR":0.00025295798,"MEAN_MOTION_DOT":0.00011004,"MEAN_MOTION_DDOT":0},{"OBJECT_NAME":"FLOCK 4BE-7","OBJECT_ID":"2024-149P","EPOCH":"2026-07-20T18:56:58.185312","CLASSIFICATION_TYPE":"U","MEAN_MOTION":15.41627756,"ECCENTRICITY":0.0004501,"INCLINATION":97.3744,"RA_OF_ASC_NODE":285.1758,"ARG_OF_PERICENTER":135.0709,"MEAN_ANOMALY":225.0902,"EPHEMERIS_TYPE":0,"NORAD_CAT_ID":60481,"ELEMENT_SET_NO":999,"REV_AT_EPOCH":10742,"BSTAR":0.00039362346,"MEAN_MOTION_DOT":0.00016505,"MEAN_MOTION_DDOT":0},{"OBJECT_NAME":"FLOCK 4BE-36","OBJECT_ID":"2024-149U","EPOCH":"2026-07-20T18:29:13.207200","CLASSIFICATION_TYPE":"U","MEAN_MOTION":15.43657545,"ECCENTRICITY":0.00051237,"INCLINATION":97.373,"RA_OF_ASC_NODE":286.6229,"ARG_OF_PERICENTER":137.4572,"MEAN_ANOMALY":222.7074,"EPHEMERIS_TYPE":0,"NORAD_CAT_ID":60486,"ELEMENT_SET_NO":999,"REV_AT_EPOCH":10753,"BSTAR":0.00025840877,"MEAN_MOTION_DOT":0.00011562,"MEAN_MOTION_DDOT":0},{"OBJECT_NAME":"FLOCK 4BE-25","OBJECT_ID":"2024-149V","EPOCH":"2026-07-20T16:43:56.828928","CLASSIFICATION_TYPE":"U","MEAN_MOTION":15.39636873,"ECCENTRICITY":0.0003976,"INCLINATION":97.3783,"RA_OF_ASC_NODE":285.0934,"ARG_OF_PERICENTER":130.5144,"MEAN_ANOMALY":229.6449,"EPHEMERIS_TYPE":0,"NORAD_CAT_ID":60487,"ELEMENT_SET_NO":999,"REV_AT_EPOCH":10739,"BSTAR":0.00022289278,"MEAN_MOTION_DOT":0.00008706,"MEAN_MOTION_DDOT":0},{"OBJECT_NAME":"FLOCK 4BE-31","OBJECT_ID":"2024-149W","EPOCH":"2026-07-20T18:26:15.122112","CLASSIFICATION_TYPE":"U","MEAN_MOTION":15.4529732,"ECCENTRICITY":0.00040765,"INCLINATION":97.3786,"RA_OF_ASC_NODE":287.5815,"ARG_OF_PERICENTER":136.9754,"MEAN_ANOMALY":223.1815,"EPHEMERIS_TYPE":0,"NORAD_CAT_ID":60488,"ELEMENT_SET_NO":999,"REV_AT_EPOCH":10756,"BSTAR":0.00028350107,"MEAN_MOTION_DOT":0.00013421,"MEAN_MOTION_DDOT":0},{"OBJECT_NAME":"FLOCK 4BE-20","OBJECT_ID":"2024-149X","EPOCH":"2026-07-20T05:19:20.854560","CLASSIFICATION_TYPE":"U","MEAN_MOTION":15.38888737,"ECCENTRICITY":0.00053423,"INCLINATION":97.3681,"RA_OF_ASC_NODE":283.4099,"ARG_OF_PERICENTER":139.6915,"MEAN_ANOMALY":220.4727,"EPHEMERIS_TYPE":0,"NORAD_CAT_ID":60489,"ELEMENT_SET_NO":999,"REV_AT_EPOCH":10729,"BSTAR":0.00018300189,"MEAN_MOTION_DOT":0.00006959,"MEAN_MOTION_DDOT":0},{"OBJECT_NAME":"FLOCK 4BE-23","OBJECT_ID":"2024-149Y","EPOCH":"2026-07-20T19:21:21.523968","CLASSIFICATION_TYPE":"U","MEAN_MOTION":15.38456275,"ECCENTRICITY":0.00050348,"INCLINATION":97.3765,"RA_OF_ASC_NODE":284.3909,"ARG_OF_PERICENTER":141.5579,"MEAN_ANOMALY":218.6026,"EPHEMERIS_TYPE":0,"NORAD_CAT_ID":60490,"ELEMENT_SET_NO":999,"REV_AT_EPOCH":10736,"BSTAR":0.00022855224,"MEAN_MOTION_DOT":0.00008591,"MEAN_MOTION_DDOT":0}]}
