FLOCK 4Q-16             
1 58271U 23174R   26201.80406865  .00015158  00000+0  26679-3 0  9990
2 58271  97.3812 290.7236 0006558  60.7825 299.4082 15.50530408150782
FLOCK 4Q-11             
1 58273U 23174T   26201.19462452  .00017311  00000+0  29907-3 0  9998
2 58273  97.3847 290.7407 0006008  56.4849 303.6976 15.51032668150708
FLOCK 4Q-28             
1 58280U 23174AA  26201.80692534  .00021964  00000+0  30555-3 0  9990
2 58280  97.3871 294.1580 0004305  45.8720 314.2889 15.56981346150972
FLOCK 4Q-27             
1 58282U 23174AC  26201.74372837  .00022649  00000+0  31260-3 0  9991
2 58282  97.3802 293.4953 0003445  51.9274 308.2291 15.57191078150976
FLOCK 4Q-7              
1 58318U 23174BQ  26201.24648159  .00020936  00000+0  28495-3 0  9992
2 58318  97.3900 293.9103 0004134  24.0637 336.0811 15.57581247150896
FLOCK 4Q-2              
1 58320U 23174BS  26201.88926883  .00017964  00000+0  31066-3 0  9993
2 58320  97.3836 291.1646 0004207  32.6330 327.5181 15.51006630150825
FLOCK 4Q-9              
1 58322U 23174BU  26201.77504208  .00018426  00000+0  31257-3 0  9992
2 58322  97.3841 291.1646 0005046  31.5083 328.6470 15.51541024150798
FLOCK 4Q-4              
1 58327U 23174BZ  26201.73015395  .00015632  00000+0  28013-3 0  9999
2 58327  97.3819 290.2187 0005338  59.3613 300.8164 15.50021251150751
FLOCK 4Q-13             
1 58328U 23174CA  26201.89772398  .00018669  00000+0  30000-3 0  9992
2 58328  97.3995 293.7352 0005383  37.9112 322.2519 15.53053083150905
FLOCK 4BE-18            
1 60480U 24149N   26201.68710450  .00011004  00000+0  25296-3 0  9992
2 60480  97.3715 285.7902 0005396 130.4313 229.7406 15.42827215107479
FLOCK 4BE-7             
1 60481U 24149P   26201.78956233  .00016505  00000+0  39362-3 0  9995
2 60481  97.3744 285.1758 0004501 135.0709 225.0902 15.41627756107424
FLOCK 4BE-36            
1 60486U 24149U   26201.77029175  .00011562  00000+0  25841-3 0  9990
2 60486  97.3730 286.6229 0005123 137.4572 222.7074 15.43657545107535
FLOCK 4BE-25            
1 60487U 24149V   26201.69718552  .00008706  00000+0  22289-3 0  9995
2 60487  97.3783 285.0934 0003976 130.5144 229.6449 15.39636873107395
FLOCK 4BE-31            
1 60488U 24149W   26201.76823058  .00013421  00000+0  28350-3 0  9997
2 60488  97.3786 287.5815 0004076 136.9754 223.1815 15.45297320107565
FLOCK 4BE-20            
1 60489U 24149X   26201.22176915  .00006959  00000+0  18300-3 0  9994
2 60489  97.3681 283.4099 0005342 139.6915 220.4727 15.38888737107297
FLOCK 4BE-23            
1 60490U 24149Y   26201.80649912  .00008591  00000+0  22855-3 0  9996
2 60490  97.3765 284.3909 0005034 141.5579 218.6026 15.38456275107365
